[
    {
        "Altitude(m)": 607895.8220864454,
        "Argument of Periapsis(deg)": 0.0,
        "Eccentricity": 0.0,
        "Inclination(deg)": 60.0,
        "Latitude(deg)": 40.998352327188755,
        "Longitude(deg)": 10.088558329410844,
        "Mean Anomaly(deg)": -229.09089999999998,
        "RAAN(deg)": 320.0,
        "Satellite Name": "Test1 1416",
        "Satellite Number": 1416,
        "Semi-Major Axis(m)": 6980739.136638005,
        "Time(s)": 0
    },
    {
        "Altitude(m)": 607795.1352408136,
        "Argument of Periapsis(deg)": 0.00010418945913296404,
        "Eccentricity": 0.0,
        "Inclination(deg)": 60.0,
        "Latitude(deg)": 40.530677463031175,
        "Longitude(deg)": 10.58515368970609,
        "Mean Anomaly(deg)": -228.47079385453813,
        "RAAN(deg)": 319.9995799508602,
        "Satellite Name": "Test1 1416",
        "Satellite Number": 1416,
        "Semi-Major Axis(m)": 6980739.136638005,
        "Time(s)": 10
    }
]